<?xml version="1.0" encoding="UTF-8"?>
<gpx xmlns="http://www.topografix.com/GPX/1/1" xmlns:xsi="http://www.w3.org/2001/XMLSchema-instance" xsi:schemaLocation="http://www.topografix.com/GPX/1/1 http://www.topografix.com/GPX/1/1/gpx.xsd" version="1.1" creator="gpx.py -- https://github.com/tkrajina/gpxpy">
  <trk>
    <name>Santa's Trail</name>
    <trkseg>
      <trkpt lat="66.542411" lon="25.844252">
      </trkpt>
      <trkpt lat="66.542282" lon="25.844247">
      </trkpt>
      <trkpt lat="66.542073" lon="25.844384">
      </trkpt>
      <trkpt lat="66.54165" lon="25.844382">
      </trkpt>
      <trkpt lat="66.541551" lon="25.844359">
      </trkpt>
      <trkpt lat="66.541321" lon="25.844111">
      </trkpt>
      <trkpt lat="66.541216" lon="25.84406">
      </trkpt>
      <trkpt lat="66.541096" lon="25.844076">
      </trkpt>
      <trkpt lat="66.540858" lon="25.844262">
      </trkpt>
      <trkpt lat="66.540689" lon="25.844301">
      </trkpt>
      <trkpt lat="66.540442" lon="25.843662">
      </trkpt>
      <trkpt lat="66.54038" lon="25.843644">
      </trkpt>
      <trkpt lat="66.540317" lon="25.843696">
      </trkpt>
      <trkpt lat="66.540171" lon="25.84393">
      </trkpt>
      <trkpt lat="66.540107" lon="25.843926">
      </trkpt>
      <trkpt lat="66.539974" lon="25.843779">
      </trkpt>
      <trkpt lat="66.539853" lon="25.843784">
      </trkpt>
      <trkpt lat="66.539609" lon="25.845071">
      </trkpt>
      <trkpt lat="66.539708" lon="25.846349">
      </trkpt>
      <trkpt lat="66.539734" lon="25.849455">
      </trkpt>
      <trkpt lat="66.53953" lon="25.850371">
      </trkpt>
      <trkpt lat="66.538908" lon="25.852101">
      </trkpt>
      <trkpt lat="66.538825" lon="25.852117">
      </trkpt>
      <trkpt lat="66.538628" lon="25.851771">
      </trkpt>
      <trkpt lat="66.538532" lon="25.851237">
      </trkpt>
      <trkpt lat="66.538392" lon="25.850784">
      </trkpt>
      <trkpt lat="66.538307" lon="25.849078">
      </trkpt>
      <trkpt lat="66.538186" lon="25.848327">
      </trkpt>
      <trkpt lat="66.537928" lon="25.847542">
      </trkpt>
      <trkpt lat="66.537888" lon="25.846908">
      </trkpt>
      <trkpt lat="66.537591" lon="25.845846">
      </trkpt>
      <trkpt lat="66.53754" lon="25.844987">
      </trkpt>
      <trkpt lat="66.537447" lon="25.844622">
      </trkpt>
      <trkpt lat="66.537244" lon="25.84422">
      </trkpt>
      <trkpt lat="66.5372" lon="25.844028">
      </trkpt>
      <trkpt lat="66.537213" lon="25.843495">
      </trkpt>
      <trkpt lat="66.537162" lon="25.843087">
      </trkpt>
      <trkpt lat="66.537201" lon="25.842619">
      </trkpt>
      <trkpt lat="66.537054" lon="25.841708">
      </trkpt>
      <trkpt lat="66.537044" lon="25.841203">
      </trkpt>
      <trkpt lat="66.53672" lon="25.840385">
      </trkpt>
      <trkpt lat="66.536608" lon="25.840394">
      </trkpt>
      <trkpt lat="66.536579" lon="25.840335">
      </trkpt>
      <trkpt lat="66.536738" lon="25.839431">
      </trkpt>
      <trkpt lat="66.536702" lon="25.838694">
      </trkpt>
      <trkpt lat="66.53667" lon="25.838639">
      </trkpt>
      <trkpt lat="66.536187" lon="25.838627">
      </trkpt>
      <trkpt lat="66.536033" lon="25.838786">
      </trkpt>
      <trkpt lat="66.535853" lon="25.838863">
      </trkpt>
      <trkpt lat="66.535254" lon="25.83831">
      </trkpt>
      <trkpt lat="66.535069" lon="25.838239">
      </trkpt>
      <trkpt lat="66.534924" lon="25.838334">
      </trkpt>
      <trkpt lat="66.534765" lon="25.838678">
      </trkpt>
      <trkpt lat="66.534418" lon="25.839053">
      </trkpt>
      <trkpt lat="66.533945" lon="25.839262">
      </trkpt>
      <trkpt lat="66.533785" lon="25.839257">
      </trkpt>
      <trkpt lat="66.533456" lon="25.83849">
      </trkpt>
      <trkpt lat="66.532941" lon="25.83848">
      </trkpt>
      <trkpt lat="66.532563" lon="25.838354">
      </trkpt>
      <trkpt lat="66.530091" lon="25.835309">
      </trkpt>
      <trkpt lat="66.529222" lon="25.834016">
      </trkpt>
      <trkpt lat="66.52829" lon="25.832889">
      </trkpt>
      <trkpt lat="66.527944" lon="25.832354">
      </trkpt>
      <trkpt lat="66.527797" lon="25.832259">
      </trkpt>
      <trkpt lat="66.52769" lon="25.83227">
      </trkpt>
      <trkpt lat="66.52757" lon="25.832151">
      </trkpt>
      <trkpt lat="66.527448" lon="25.831856">
      </trkpt>
      <trkpt lat="66.525451" lon="25.829697">
      </trkpt>
      <trkpt lat="66.52525" lon="25.829539">
      </trkpt>
      <trkpt lat="66.525107" lon="25.829257">
      </trkpt>
      <trkpt lat="66.524934" lon="25.828154">
      </trkpt>
      <trkpt lat="66.524912" lon="25.827322">
      </trkpt>
      <trkpt lat="66.524989" lon="25.826735">
      </trkpt>
      <trkpt lat="66.525004" lon="25.825877">
      </trkpt>
      <trkpt lat="66.524916" lon="25.824738">
      </trkpt>
      <trkpt lat="66.524807" lon="25.823989">
      </trkpt>
      <trkpt lat="66.524921" lon="25.823642">
      </trkpt>
      <trkpt lat="66.525123" lon="25.823526">
      </trkpt>
      <trkpt lat="66.525503" lon="25.823544">
      </trkpt>
      <trkpt lat="66.525653" lon="25.823431">
      </trkpt>
    </trkseg>
    <trkseg>
      <trkpt lat="66.53866" lon="25.851859">
      </trkpt>
      <trkpt lat="66.538581" lon="25.85358">
      </trkpt>
      <trkpt lat="66.538502" lon="25.854134">
      </trkpt>
      <trkpt lat="66.538471" lon="25.854148">
      </trkpt>
      <trkpt lat="66.538439" lon="25.85385">
      </trkpt>
      <trkpt lat="66.538267" lon="25.85453">
      </trkpt>
      <trkpt lat="66.538198" lon="25.855363">
      </trkpt>
      <trkpt lat="66.53814" lon="25.855518">
      </trkpt>
      <trkpt lat="66.538158" lon="25.855781">
      </trkpt>
    </trkseg>
    <trkseg>
      <trkpt lat="66.538145" lon="25.855785">
      </trkpt>
      <trkpt lat="66.538079" lon="25.855573">
      </trkpt>
      <trkpt lat="66.538073" lon="25.855357">
      </trkpt>
      <trkpt lat="66.538192" lon="25.854738">
      </trkpt>
      <trkpt lat="66.538196" lon="25.853896">
      </trkpt>
      <trkpt lat="66.538306" lon="25.853522">
      </trkpt>
      <trkpt lat="66.538286" lon="25.853168">
      </trkpt>
      <trkpt lat="66.538324" lon="25.853138">
      </trkpt>
      <trkpt lat="66.538353" lon="25.853167">
      </trkpt>
      <trkpt lat="66.538436" lon="25.853544">
      </trkpt>
      <trkpt lat="66.538483" lon="25.85357">
      </trkpt>
      <trkpt lat="66.53859" lon="25.852403">
      </trkpt>
      <trkpt lat="66.538521" lon="25.851862">
      </trkpt>
      <trkpt lat="66.538625" lon="25.851927">
      </trkpt>
    </trkseg>
    <trkseg>
      <trkpt lat="66.538135" lon="25.855871">
      </trkpt>
      <trkpt lat="66.538016" lon="25.855913">
      </trkpt>
      <trkpt lat="66.537901" lon="25.855864">
      </trkpt>
      <trkpt lat="66.537805" lon="25.855653">
      </trkpt>
      <trkpt lat="66.537744" lon="25.855795">
      </trkpt>
      <trkpt lat="66.537722" lon="25.856302">
      </trkpt>
      <trkpt lat="66.537483" lon="25.856198">
      </trkpt>
      <trkpt lat="66.537412" lon="25.855947">
      </trkpt>
      <trkpt lat="66.537412" lon="25.855247">
      </trkpt>
      <trkpt lat="66.53761" lon="25.853337">
      </trkpt>
      <trkpt lat="66.537603" lon="25.852806">
      </trkpt>
      <trkpt lat="66.537491" lon="25.85218">
      </trkpt>
      <trkpt lat="66.537314" lon="25.851706">
      </trkpt>
      <trkpt lat="66.537154" lon="25.850985">
      </trkpt>
      <trkpt lat="66.536955" lon="25.85047">
      </trkpt>
      <trkpt lat="66.536864" lon="25.849807">
      </trkpt>
      <trkpt lat="66.536863" lon="25.849291">
      </trkpt>
      <trkpt lat="66.536748" lon="25.848767">
      </trkpt>
      <trkpt lat="66.53657" lon="25.848284">
      </trkpt>
      <trkpt lat="66.53671" lon="25.846431">
      </trkpt>
      <trkpt lat="66.536973" lon="25.845851">
      </trkpt>
      <trkpt lat="66.537194" lon="25.845751">
      </trkpt>
      <trkpt lat="66.537257" lon="25.845372">
      </trkpt>
      <trkpt lat="66.537239" lon="25.84479">
      </trkpt>
      <trkpt lat="66.537024" lon="25.844241">
      </trkpt>
      <trkpt lat="66.537049" lon="25.84415">
      </trkpt>
      <trkpt lat="66.53719" lon="25.844062">
      </trkpt>
    </trkseg>
  </trk>
</gpx>